[{"OBJECT_NAME":"STARLINK-2065","OBJECT_ID":"2021-012BE","EPOCH":"2026-03-09T06:02:29.895360","MEAN_MOTION":15.6876286,"ECCENTRICITY":0.0006678,"INCLINATION":53.1532,"RA_OF_ASC_NODE":11.1448,"ARG_OF_PERICENTER":48.9965,"MEAN_ANOMALY":311.1629,"EPHEMERIS_TYPE":0,"CLASSIFICATION_TYPE":"U","NORAD_CAT_ID":47672,"ELEMENT_SET_NO":999,"REV_AT_EPOCH":28079,"BSTAR":0.00096339732,"MEAN_MOTION_DOT":0.00113313,"MEAN_MOTION_DDOT":0},{"OBJECT_NAME":"STARLINK-30832","OBJECT_ID":"2023-177D","EPOCH":"2026-03-09T22:00:01.999584","MEAN_MOTION":15.19676293,"ECCENTRICITY":0.0002246,"INCLINATION":43,"RA_OF_ASC_NODE":349.6193,"ARG_OF_PERICENTER":243.7438,"MEAN_ANOMALY":292.7776,"EPHEMERIS_TYPE":0,"CLASSIFICATION_TYPE":"U","NORAD_CAT_ID":58354,"ELEMENT_SET_NO":999,"REV_AT_EPOCH":567,"BSTAR":0.092112448,"MEAN_MOTION_DOT":0.02209783,"MEAN_MOTION_DDOT":0}]
